ONEWEB-0020             
1 45133U 20008C   24135.39483925 -.00000356  00000+0 -10564-2 0  9997
2 45133  87.8966 188.0840 0002292  95.3241 264.8148 13.10369691208316
ONEWEB-0021             
1 45134U 20008D   24135.86792667 -.00000700  00000+0 -20409-2 0  9998
2 45134  87.8972 188.0044 0002125  98.4053 261.7316 13.10373779208685
ONEWEB-0024             
1 45137U 20008G   24135.85133184 -.00000301  00000+0 -89816-3 0  9998
2 45137  87.8955 187.9893 0002175 101.0625 259.0747 13.10370496208276
ONEWEB-0025             
1 45138U 20008H   24135.86958486 -.00000692  00000+0 -20178-2 0  9998
2 45138  87.8962 187.9850 0001903  99.5118 260.6225 13.10374250208602
ONEWEB-0026             
1 45139U 20008J   24135.50362746 -.00000276  00000+0 -81585-3 0  9996
2 45139  87.8985 172.9836 0002280  92.8277 267.3112 13.11333795211891
ONEWEB-0028             
1 45140U 20008K   24135.84039775 -.00000071  00000+0 -23735-3 0  9994
2 45140  87.8981 172.9584 0001538 106.5873 253.5423 13.11358993208579
